ONEWEB-0068             
1 45446U 20020Y   26195.54388575 -.00000141  00000+0 -43467-3 0  9999
2 45446  87.8891  15.6177 0001644  91.8247 268.3069 13.11418922306183
ONEWEB-0046             
1 45447U 20020Z   26195.53553126 -.00000441  00000+0 -12803-2 0  9997
2 45447  87.8882  15.6231 0001663  83.4043 276.7275 13.11418350306195
ONEWEB-0063             
1 45448U 20020AA  26195.56451415  .00000555  00000+0  15312-2 0  9991
2 45448  87.8893  15.6186 0001927  81.8481 278.2866 13.11416737306288
ONEWEB-0019             
1 45449U 20020AB  26195.52692101  .00000188  00000+0  49337-3 0  9994
2 45449  87.8884  15.6113 0002020  96.2960 263.8398 13.11413385306125
ONEWEB-0094             
1 45450U 20020AC  26195.46403635  .00000037  00000+0  62459-4 0  9995
2 45450  87.9156   0.4247 0001808 100.7031 259.4304 13.17649204309907
ONEWEB-0087             
1 45451U 20020AD  26195.57440799  .00000397  00000+0  10841-2 0  9995
2 45451  87.8900  15.5930 0001559  94.4087 265.7219 13.11415285306178
ONEWEB-0082             
1 45452U 20020AE  26195.57101857  .00000488  00000+0  13415-2 0  9996
2 45452  87.8893  15.6083 0001368  86.7371 273.3913 13.11416408306262
ONEWEB-0050             
1 45453U 20020AF  26195.60282050  .00000979  00000+0  98207-4 0  9995
2 45453  88.9280 229.4863 0002245 176.0679 184.0568 14.90471761344464
ONEWEB-0034             
1 45454U 20020AG  26195.53230538 -.00000466  00000+0 -13511-2 0  9998
2 45454  87.8891  15.6251 0001830  89.7422 270.3916 13.11416794306171
ONEWEB-0060             
1 45455U 20020AH  26195.56353027  .00000521  00000+0  14355-2 0  9998
2 45455  87.8885  15.6147 0001153 120.2184 239.9059 13.11417070306136
ONEWEB-0086             
1 45456U 20020AJ  26195.54218462 -.00000188  00000+0 -56486-3 0  9993
2 45456  87.8893  15.6165 0001819 114.3225 245.8094 13.11418987306194
ONEWEB-0088             
1 45457U 20020AK  26195.52027126 -.00000340  00000+0 -99511-3 0  9993
2 45457  87.8898  15.5957 0001743  77.2521 282.8802 13.11415921306126
ONEWEB-0102             
1 47258U 20100A   26195.42687033 -.00000008  00000+0 -57199-4 0  9999
2 47258  87.8961 345.2574 0002025 103.4850 256.6505 13.12442476268309
ONEWEB-0109             
1 47259U 20100B   26195.43533718 -.00000274  00000+0 -79714-3 0  9992
2 47259  87.8970 345.2414 0002019  97.4716 262.6642 13.12442824268136
ONEWEB-0110             
1 47260U 20100C   26195.46245568 -.00000016  00000+0 -80784-4 0  9994
2 47260  87.8970 345.2204 0001797 105.2469 254.8858 13.12444299268309
ONEWEB-0111             
1 47261U 20100D   26195.49294847  .00000251  00000+0  66301-3 0  9999
2 47261  87.8970 345.2328 0001724  96.4059 263.7266 13.12442050268140
ONEWEB-0114             
1 47262U 20100E   26195.44719470 -.00000397  00000+0 -11381-2 0  9999
2 47262  87.8973 345.2404 0002067  95.6123 264.5241 13.12442957268095
ONEWEB-0117             
1 47263U 20100F   26195.43872450 -.00000317  00000+0 -91609-3 0  9991
2 47263  87.8970 345.2320 0001859  97.0256 263.1084 13.12442259268108
ONEWEB-0118             
1 47264U 20100G   26195.47261801  .00000342  00000+0  91506-3 0  9990
2 47264  87.8967 345.2280 0001999  87.1168 273.0189 13.12443243268309
ONEWEB-0119             
1 47265U 20100H   26195.49802978  .00000149  00000+0  37840-3 0  9995
2 47265  87.8959 345.2369 0001864  95.9098 264.2243 13.12441404268286
ONEWEB-0120             
1 47266U 20100J   26195.44563954 -.00000377  00000+0 -10822-2 0  9994
2 47266  87.8961 345.2492 0002064  96.6125 263.5238 13.12442491268305
ONEWEB-0121             
1 47267U 20100K   26195.43364139 -.00000198  00000+0 -58501-3 0  9996
2 47267  87.8971 345.2400 0001553  98.9781 261.1524 13.12442099268217
ONEWEB-0122             
1 47268U 20100L   26195.42771386 -.00000057  00000+0 -19408-3 0  9999
2 47268  87.8973 345.2462 0001965  98.7007 261.4344 13.12440335268128
ONEWEB-0123             
1 47269U 20100M   26195.42348072  .00000113  00000+0  27806-3 0  9994
2 47269  87.8960 345.2508 0001858  92.8435 267.2906 13.12441714268262
ONEWEB-0124             
1 47270U 20100N   26195.48955749  .00000394  00000+0  10596-2 0  9995
2 47270  87.8958 345.2406 0001737  95.6568 264.4759 13.12442230268159
ONEWEB-0125             
1 47271U 20100P   26195.46752925  .00000161  00000+0  41248-3 0  9996
2 47271  87.8970 345.2314 0001608  88.8279 271.3033 13.12444063268217
ONEWEB-0126             
1 47272U 20100Q   26195.48801339  .00000355  00000+0  95275-3 0  9997
2 47272  87.8964 345.2413 0001963  94.8845 265.2508 13.12442096268281
ONEWEB-0127             
1 47273U 20100R   26195.45397293 -.00000281  00000+0 -81643-3 0  9998
2 47273  87.8961 345.2456 0002002  96.9121 263.2236 13.12444045268306
ONEWEB-0128             
1 47274U 20100S   26195.47600569  .00001475  00000+0  40644-2 0  9993
2 47274  87.8958 345.2547 0001811 104.2584 255.8746 13.12437409268328
ONEWEB-0129             
1 47275U 20100T   26195.45566903 -.00000218  00000+0 -64009-3 0  9993
2 47275  87.8967 345.2354 0002986  94.0495 266.0975 13.12443066268252
