OBJECT_NAME,OBJECT_ID,EPOCH,MEAN_MOTION,ECCENTRICITY,INCLINATION,RA_OF_ASC_NODE,ARG_OF_PERICENTER,MEAN_ANOMALY,EPHEMERIS_TYPE,CLASSIFICATION_TYPE,NORAD_CAT_ID,ELEMENT_SET_NO,REV_AT_EPOCH,BSTAR,MEAN_MOTION_DOT,MEAN_MOTION_DDOT
ONEWEB-0068,2020-020Y,2026-07-14T13:03:11.728800,13.11418922,.00016442,87.8891,15.6177,91.8247,268.3069,0,U,45446,999,30618,-.43467467E-3,-.141E-5,0
ONEWEB-0046,2020-020Z,2026-07-14T12:51:09.900864,13.11418350,.00016631,87.8882,15.6231,83.4043,276.7275,0,U,45447,999,30619,-.12802835E-2,-.441E-5,0
ONEWEB-0063,2020-020AA,2026-07-14T13:32:54.022560,13.11416737,.00019276,87.8893,15.6186,81.8481,278.2866,0,U,45448,999,30628,.15311869E-2,.555E-5,0
ONEWEB-0019,2020-020AB,2026-07-14T12:38:45.975264,13.11413385,.000202,87.8884,15.6113,96.2960,263.8398,0,U,45449,999,30612,.49336628E-3,.188E-5,0
ONEWEB-0094,2020-020AC,2026-07-14T11:08:12.740640,13.17649204,.00018085,87.9156,0.4247,100.7031,259.4304,0,U,45450,999,30990,.62459409E-4,.37E-6,0
ONEWEB-0087,2020-020AD,2026-07-14T13:47:08.850336,13.11415285,.00015594,87.8900,15.5930,94.4087,265.7219,0,U,45451,999,30617,.10840514E-2,.397E-5,0
ONEWEB-0082,2020-020AE,2026-07-14T13:42:16.004448,13.11416408,.00013684,87.8893,15.6083,86.7371,273.3913,0,U,45452,999,30626,.13414551E-2,.488E-5,0
ONEWEB-0050,2020-020AF,2026-07-14T14:28:03.691200,14.90471761,.00022455,88.9280,229.4863,176.0679,184.0568,0,U,45453,999,34446,.98207245E-4,.979E-5,0
ONEWEB-0034,2020-020AG,2026-07-14T12:46:31.184832,13.11416794,.00018308,87.8891,15.6251,89.7422,270.3916,0,U,45454,999,30617,-.13510519E-2,-.466E-5,0
ONEWEB-0060,2020-020AH,2026-07-14T13:31:29.015328,13.11417070,.00011537,87.8885,15.6147,120.2184,239.9059,0,U,45455,999,30613,.14355132E-2,.521E-5,0
ONEWEB-0086,2020-020AJ,2026-07-14T13:00:44.751168,13.11418987,.00018192,87.8893,15.6165,114.3225,245.8094,0,U,45456,999,30619,-.5648601E-3,-.188E-5,0
ONEWEB-0088,2020-020AK,2026-07-14T12:29:11.436864,13.11415921,.00017439,87.8898,15.5957,77.2521,282.8802,0,U,45457,999,30612,-.9951138E-3,-.34E-5,0
ONEWEB-0102,2020-100A,2026-07-14T10:14:41.596512,13.12442476,.00020251,87.8961,345.2574,103.4850,256.6505,0,U,47258,999,26830,-.57199107E-4,-.8E-7,0
ONEWEB-0109,2020-100B,2026-07-14T10:26:53.132352,13.12442824,.00020197,87.8970,345.2414,97.4716,262.6642,0,U,47259,999,26813,-.79713571E-3,-.274E-5,0
ONEWEB-0110,2020-100C,2026-07-14T11:05:56.170752,13.12444299,.0001797,87.8970,345.2204,105.2469,254.8858,0,U,47260,999,26830,-.80783802E-4,-.16E-6,0
ONEWEB-0111,2020-100D,2026-07-14T11:49:50.747808,13.12442050,.00017246,87.8970,345.2328,96.4059,263.7266,0,U,47261,999,26814,.66300879E-3,.251E-5,0
ONEWEB-0114,2020-100E,2026-07-14T10:43:57.622080,13.12442957,.00020679,87.8973,345.2404,95.6123,264.5241,0,U,47262,999,26809,-.11381473E-2,-.397E-5,0
ONEWEB-0117,2020-100F,2026-07-14T10:31:45.796800,13.12442259,.00018596,87.8970,345.2320,97.0256,263.1084,0,U,47263,999,26810,-.91609457E-3,-.317E-5,0
ONEWEB-0118,2020-100G,2026-07-14T11:20:34.196064,13.12443243,.00019992,87.8967,345.2280,87.1168,273.0189,0,U,47264,999,26830,.91506291E-3,.342E-5,0
ONEWEB-0119,2020-100H,2026-07-14T11:57:09.772992,13.12441404,.00018645,87.8959,345.2369,95.9098,264.2243,0,U,47265,999,26828,.3784034E-3,.149E-5,0
ONEWEB-0120,2020-100J,2026-07-14T10:41:43.256256,13.12442491,.00020648,87.8961,345.2492,96.6125,263.5238,0,U,47266,999,26830,-.10821952E-2,-.377E-5,0
ONEWEB-0121,2020-100K,2026-07-14T10:24:26.616096,13.12442099,.00015537,87.8971,345.2400,98.9781,261.1524,0,U,47267,999,26821,-.58500625E-3,-.198E-5,0
ONEWEB-0122,2020-100L,2026-07-14T10:15:54.477504,13.12440335,.00019658,87.8973,345.2462,98.7007,261.4344,0,U,47268,999,26812,-.19407622E-3,-.57E-6,0
ONEWEB-0123,2020-100M,2026-07-14T10:09:48.734208,13.12441714,.00018585,87.8960,345.2508,92.8435,267.2906,0,U,47269,999,26826,.2780616E-3,.113E-5,0
ONEWEB-0124,2020-100N,2026-07-14T11:44:57.767136,13.12442230,.00017371,87.8958,345.2406,95.6568,264.4759,0,U,47270,999,26815,.10595512E-2,.394E-5,0
ONEWEB-0125,2020-100P,2026-07-14T11:13:14.527200,13.12444063,.00016081,87.8970,345.2314,88.8279,271.3033,0,U,47271,999,26821,.41248116E-3,.161E-5,0
ONEWEB-0126,2020-100Q,2026-07-14T11:42:44.356896,13.12442096,.0001963,87.8964,345.2413,94.8845,265.2508,0,U,47272,999,26828,.9527514E-3,.355E-5,0
ONEWEB-0127,2020-100R,2026-07-14T10:53:43.261152,13.12444045,.00020027,87.8961,345.2456,96.9121,263.2236,0,U,47273,999,26830,-.81643319E-3,-.281E-5,0
ONEWEB-0128,2020-100S,2026-07-14T11:25:26.891616,13.12437409,.00018119,87.8958,345.2547,104.2584,255.8746,0,U,47274,999,26832,.40644235E-2,.1475E-4,0
ONEWEB-0129,2020-100T,2026-07-14T10:56:09.804192,13.12443066,.00029867,87.8967,345.2354,94.0495,266.0975,0,U,47275,999,26825,-.6400899E-3,-.218E-5,0
